{
  "type": "FeatureCollection",
  "features": [
    {
      "type": "Feature",
      "properties": {
        "norad_id": 31692,
        "name": "FENGYUN 1C DEB",
        "group": "fengyun-1c-debris",
        "lat": -69.92186032134416,
        "lon": 8.873062506911465,
        "alt_km": 895.7337785053423,
        "timestamp": "2025-12-12T03:50:52.700939+00:00",
        "meta_object_name": "FENGYUN 1C DEB",
        "meta_object_id": "1999-025CDA",
        "meta_epoch": "2025-12-11T06:10:48.476928",
        "meta_mean_motion": 14.18323577,
        "meta_eccentricity": 0.00878941,
        "meta_inclination": 99.1764,
        "meta_ra_of_asc_node": 341.6931,
        "meta_arg_of_pericenter": 85.951,
        "meta_mean_anomaly": 275.1705,
        "meta_ephemeris_type": 0,
        "meta_classification_type": "U",
        "meta_norad_cat_id": 31692,
        "meta_element_set_no": 999,
        "meta_rev_at_epoch": 58188,
        "meta_bstar": 0.0045400463,
        "meta_mean_motion_dot": 9.685e-05,
        "meta_mean_motion_ddot": 0,
        "tle_line1": "1 31692U 99025CDA 25345.25750552  .00009685  00000+0  45400-2 0  9998",
        "tle_line2": "2 31692  99.1764 341.6931 0087894  85.9510 275.1705 14.18323577581888"
      },
      "geometry": {
        "type": "Point",
        "coordinates": [
          8.873062506911465,
          -69.92186032134416
        ]
      }
    },
    {
      "type": "Feature",
      "properties": {
        "norad_id": 31695,
        "name": "FENGYUN 1C DEB",
        "group": "fengyun-1c-debris",
        "lat": -52.49447170568323,
        "lon": 81.38030309862489,
        "alt_km": 625.4192653777081,
        "timestamp": "2025-12-12T03:50:52.700950+00:00",
        "meta_object_name": "FENGYUN 1C DEB",
        "meta_object_id": "1999-025CDD",
        "meta_epoch": "2025-12-10T01:34:16.603680",
        "meta_mean_motion": 14.73548742,
        "meta_eccentricity": 0.01751817,
        "meta_inclination": 98.2646,
        "meta_ra_of_asc_node": 68.3287,
        "meta_arg_of_pericenter": 237.0971,
        "meta_mean_anomaly": 121.3278,
        "meta_ephemeris_type": 0,
        "meta_classification_type": "U",
        "meta_norad_cat_id": 31695,
        "meta_element_set_no": 999,
        "meta_rev_at_epoch": 65932,
        "meta_bstar": 0.0024110089,
        "meta_mean_motion_dot": 0.00020039,
        "meta_mean_motion_ddot": 0,
        "tle_line1": "1 31695U 99025CDD 25344.06546995  .00020039  00000+0  24110-2 0  9994",
        "tle_line2": "2 31695  98.2646  68.3287 0175181 237.0971 121.3278 14.73548742659321"
      },
      "geometry": {
        "type": "Point",
        "coordinates": [
          81.38030309862489,
          -52.49447170568323
        ]
      }
    },
    {
      "type": "Feature",
      "properties": {
        "norad_id": 31714,
        "name": "FENGYUN 1C DEB",
        "group": "fengyun-1c-debris",
        "lat": 2.236718472274719,
        "lon": -114.09504392231383,
        "alt_km": 599.8316403155168,
        "timestamp": "2025-12-12T03:50:52.700960+00:00",
        "meta_object_name": "FENGYUN 1C DEB",
        "meta_object_id": "1999-025CDM",
        "meta_epoch": "2025-12-11T05:49:47.919072",
        "meta_mean_motion": 14.87741873,
        "meta_eccentricity": 0.00189891,
        "meta_inclination": 99.0301,
        "meta_ra_of_asc_node": 245.2176,
        "meta_arg_of_pericenter": 308.8402,
        "meta_mean_anomaly": 182.4415,
        "meta_ephemeris_type": 0,
        "meta_classification_type": "U",
        "meta_norad_cat_id": 31714,
        "meta_element_set_no": 999,
        "meta_rev_at_epoch": 96027,
        "meta_bstar": 0.0099751352,
        "meta_mean_motion_dot": 0.00092395,
        "meta_mean_motion_ddot": 0,
        "tle_line1": "1 31714U 99025CDM 25345.24291573  .00092395  00000+0  99751-2 0  9993",
        "tle_line2": "2 31714  99.0301 245.2176 0018989 308.8402 182.4415 14.87741873960276"
      },
      "geometry": {
        "type": "Point",
        "coordinates": [
          -114.09504392231383,
          2.236718472274719
        ]
      }
    },
    {
      "type": "Feature",
      "properties": {
        "norad_id": 31715,
        "name": "FENGYUN 1C DEB",
        "group": "fengyun-1c-debris",
        "lat": 43.49708947320619,
        "lon": 3.855359831348133,
        "alt_km": 586.2543115921126,
        "timestamp": "2025-12-12T03:50:52.700970+00:00",
        "meta_object_name": "FENGYUN 1C DEB",
        "meta_object_id": "1999-025CDN",
        "meta_epoch": "2025-12-10T06:35:10.683744",
        "meta_mean_motion": 14.52125972,
        "meta_eccentricity": 0.0187101,
        "meta_inclination": 99.2936,
        "meta_ra_of_asc_node": 172.8301,
        "meta_arg_of_pericenter": 126.8068,
        "meta_mean_anomaly": 235.0454,
        "meta_ephemeris_type": 0,
        "meta_classification_type": "U",
        "meta_norad_cat_id": 31715,
        "meta_element_set_no": 999,
        "meta_rev_at_epoch": 61681,
        "meta_bstar": 0.0013897,
        "meta_mean_motion_dot": 7.024e-05,
        "meta_mean_motion_ddot": 0,
        "tle_line1": "1 31715U 99025CDN 25344.27442921  .00007024  00000+0  13897-2 0  9993",
        "tle_line2": "2 31715  99.2936 172.8301 0187101 126.8068 235.0454 14.52125972616811"
      },
      "geometry": {
        "type": "Point",
        "coordinates": [
          3.855359831348133,
          43.49708947320619
        ]
      }
    },
    {
      "type": "Feature",
      "properties": {
        "norad_id": 31716,
        "name": "FENGYUN 1C DEB",
        "group": "fengyun-1c-debris",
        "lat": -0.8897511485367038,
        "lon": 65.0397958444143,
        "alt_km": 881.570588127086,
        "timestamp": "2025-12-12T03:50:52.700980+00:00",
        "meta_object_name": "FENGYUN 1C DEB",
        "meta_object_id": "1999-025CDP",
        "meta_epoch": "2025-12-08T05:37:21.600192",
        "meta_mean_motion": 14.03577744,
        "meta_eccentricity": 0.01316478,
        "meta_inclination": 98.5559,
        "meta_ra_of_asc_node": 241.4783,
        "meta_arg_of_pericenter": 102.7511,
        "meta_mean_anomaly": 49.5156,
        "meta_ephemeris_type": 0,
        "meta_classification_type": "U",
        "meta_norad_cat_id": 31716,
        "meta_element_set_no": 999,
        "meta_rev_at_epoch": 94056,
        "meta_bstar": 0.0019814323,
        "meta_mean_motion_dot": 3.318e-05,
        "meta_mean_motion_ddot": 0,
        "tle_line1": "1 31716U 99025CDP 25342.23427778  .00003318  00000+0  19814-2 0  9998",
        "tle_line2": "2 31716  98.5559 241.4783 0131647 102.7511  49.5156 14.03577744940565"
      },
      "geometry": {
        "type": "Point",
        "coordinates": [
          65.0397958444143,
          -0.8897511485367038
        ]
      }
    },
    {
      "type": "Feature",
      "properties": {
        "norad_id": 31720,
        "name": "FENGYUN 1C DEB",
        "group": "fengyun-1c-debris",
        "lat": -7.716978649981758,
        "lon": 76.77731528728653,
        "alt_km": 626.1356085526031,
        "timestamp": "2025-12-12T03:50:52.700990+00:00",
        "meta_object_name": "FENGYUN 1C DEB",
        "meta_object_id": "1999-025CDT",
        "meta_epoch": "2025-12-06T11:34:46.803360",
        "meta_mean_motion": 14.71723784,
        "meta_eccentricity": 0.00997846,
        "meta_inclination": 99.0473,
        "meta_ra_of_asc_node": 251.706,
        "meta_arg_of_pericenter": 142.8695,
        "meta_mean_anomaly": 217.9466,
        "meta_ephemeris_type": 0,
        "meta_classification_type": "U",
        "meta_norad_cat_id": 31720,
        "meta_element_set_no": 999,
        "meta_rev_at_epoch": 98144,
        "meta_bstar": 0.001372845,
        "meta_mean_motion_dot": 9.204e-05,
        "meta_mean_motion_ddot": 0,
        "tle_line1": "1 31720U 99025CDT 25340.48248615  .00009204  00000+0  13728-2 0  9997",
        "tle_line2": "2 31720  99.0473 251.7060 0099784 142.8695 217.9466 14.71723784981445"
      },
      "geometry": {
        "type": "Point",
        "coordinates": [
          76.77731528728653,
          -7.716978649981758
        ]
      }
    },
    {
      "type": "Feature",
      "properties": {
        "norad_id": 31721,
        "name": "FENGYUN 1C DEB",
        "group": "fengyun-1c-debris",
        "lat": 67.17545236888141,
        "lon": 169.9652135396205,
        "alt_km": 909.445328843185,
        "timestamp": "2025-12-12T03:50:52.701000+00:00",
        "meta_object_name": "FENGYUN 1C DEB",
        "meta_object_id": "1999-025CDU",
        "meta_epoch": "2025-12-11T10:33:23.713056",
        "meta_mean_motion": 13.73776186,
        "meta_eccentricity": 0.03173694,
        "meta_inclination": 99.7811,
        "meta_ra_of_asc_node": 325.0314,
        "meta_arg_of_pericenter": 186.8681,
        "meta_mean_anomaly": 325.9802,
        "meta_ephemeris_type": 0,
        "meta_classification_type": "U",
        "meta_norad_cat_id": 31721,
        "meta_element_set_no": 999,
        "meta_rev_at_epoch": 67368,
        "meta_bstar": 0.0005325151,
        "meta_mean_motion_dot": 6.7e-06,
        "meta_mean_motion_ddot": 0,
        "tle_line1": "1 31721U 99025CDU 25345.43985779  .00000670  00000+0  53252-3 0  9992",
        "tle_line2": "2 31721  99.7811 325.0314 0317369 186.8681 325.9802 13.73776186673684"
      },
      "geometry": {
        "type": "Point",
        "coordinates": [
          169.9652135396205,
          67.17545236888141
        ]
      }
    }
  ]
}